#cP2017 12  3  0  0  0.00000000      96 ORBIT IGS14 HLM  IGS
## 1978      0.00000000   900.00000000 58090 0.0000000000000
+   32   G01G02G03G04G05G06G07G08G09G10G11G12G13G14G15G16G17
+        G18G19G20G21G22G23G24G25G26G27G28G29G30G31G32  0  0
+          0  0  0  0  0  0  0  0  0  0  0  0  0  0  0  0  0
+          0  0  0  0  0  0  0  0  0  0  0  0  0  0  0  0  0
+          0  0  0  0  0  0  0  0  0  0  0  0  0  0  0  0  0
++         2  2  2  0  2  2  2  3  2  2  2  2  2  2  2  2  2
++         2  2  2  2  2  2  2  2  2  3  2  2  2  2  2  0  0
++         0  0  0  0  0  0  0  0  0  0  0  0  0  0  0  0  0
++         0  0  0  0  0  0  0  0  0  0  0  0  0  0  0  0  0
++         0  0  0  0  0  0  0  0  0  0  0  0  0  0  0  0  0
%c G  cc GPS ccc cccc cccc cccc cccc ccccc ccccc ccccc ccccc
%c cc cc ccc ccc cccc cccc cccc cccc ccccc ccccc ccccc ccccc
%f  1.2500000  1.025000000  0.00000000000  0.000000000000000
%f  0.0000000  0.000000000  0.00000000000  0.000000000000000
%i    0    0    0    0      0      0      0      0         0
%i    0    0    0    0      0      0      0      0         0
/* RAPID ORBIT COMBINATION FROM WEIGHTED AVERAGE OF:        
/* cod emr esa gfz jpl ngs sio usn whu                      
/* REFERENCED TO IGS TIME (IGST) AND TO WEIGHTED MEAN POLE: 
/* PCV:IGS14_1977 OL/AL:FES2004  NONE     Y  ORB:CMB CLK:CMB
*  2017 12  3 14 15  0.00000000
PG01   4743.246971  14385.397741 -21963.606542    -14.348815  5  6  5  58       
PG02  17966.620294 -14752.317774  13097.935243    265.008006  7  7  4  95       
PG03  11750.605401  22102.904009  -8966.238925    -32.841570  4  4  7 112       
PG04 -18145.473213  -1235.701408  19225.028716 999999.999999
PG05   6604.703579 -14849.167219  20870.800537    -20.867100  6  7  5  60       
PG06  25374.057658  -7480.114452   2473.979403    412.109117  4  6  3  81       
PG07  20070.459341   7475.919393  16188.423501    271.087678  4  2  4  73       
PG08  -5088.772489  25727.936123  -3731.939514    -82.802564  7  5  9 100       
PG09  10881.742112  13435.098875  20126.445346    478.927624  4  2  2  76       
PG10 -20472.222666  -5634.153909 -16018.054434    122.719500  8  2  6  94       
PG11    871.545565  18500.805313 -19641.087410   -729.116446  7  6  5  87       
PG12  -8179.996213 -22501.516796 -11876.057535    362.077909  5  5  4  99       
PG13  12223.250824 -23473.311720   2236.870704    -94.490224  9  7  5  97       
PG14 -16890.838523  12747.082152 -15671.302319    -89.843510  6  7  3 108       
PG15   1619.060793 -25738.949607  -5625.247212   -357.339157  9  8  4  98       
PG16  -6605.472915  14246.676584  21209.475904     35.840053  9  7  3 108       
PG17  15905.630642  -3356.747448 -20594.041141   -140.537400  9  2  5  71       
PG18 -21280.618622 -14669.717958  -5894.533518    633.225192  2  7  4  60       
PG19  17269.960267 -11461.861566 -17010.151190   -472.090838 10  7  7  94       
PG20 -10366.180536 -21230.535143  12019.890626    494.533587  6  8  7 102       
PG21 -21421.878964  -5828.531005  15411.570540   -456.259948  5  6  2 105       
PG22   5741.331495  21183.870039 -14701.533477   -209.880953  7  2  6  86       
PG23   3968.682035  22123.009636  14068.865089   -218.885578  5  8  5  99       
PG24  -1756.422255 -15630.577265 -21482.618025    -42.988257  8  7  6 101       
PG25 -17672.160711 -19989.433190   -617.535090   -499.700075  7  6  5  52       
PG26 -15076.718982   5722.104645  21126.812578   -339.209146  4  3  3 116       
PG27 -12401.335268  21948.428616   7920.134482    353.077413  4 10  9  81       
PG28  19676.379653  10828.197707 -13521.746536    667.835548  6  6  4 103       
PG29  -6379.453950 -17933.683000  18520.360201    530.176670  7  8  8 124       
PG30  25452.812714   1428.898629   7721.504248    123.544953  6  7  6  60       
PG31 -25349.247882   7676.808921   4039.272873    157.997036  6  6  3  93       
PG32 -16468.730495   5716.129649 -19997.351230   -527.723299  7  7  6  96       
*  2017 12  3 14 30  0.00000000
PG01   2335.666981  14979.135981 -21930.064654    -14.351088  5  6  5  79       
PG02  19283.467630 -14904.054642  10717.230982    264.999138  8  7  4  87       
PG03  10774.262540  21426.780727 -11481.921519    -32.836299  4  4  7 103       
PG04 -19528.962425  -2872.540213  17673.954774 999999.999999
PG05   8391.203932 -13178.552869  21361.212528    -20.865952  7  7  5  87       
PG06  25544.853288  -7286.990998   -394.943764    412.110259  4  6  4  91       
PG07  18248.626867   8042.551938  17957.569524    271.083209  5  2  4  64       
PG08  -5392.008752  25926.628545   -870.326927    -82.803511  7  6  8 109       
PG09  10189.257892  15571.783834  18914.049800    478.931804  4  3     78       
PG10 -21548.642240  -6980.342482 -13958.578036    122.725856  7  2  6  90       
PG11   -879.561402  19658.543074 -18456.710227   -729.118009  7  6  5  80       
PG12  -7128.169220 -21484.031975 -14220.987498    362.076675  5  6  5 116       
PG13  12271.205934 -22988.418308   5067.796872    -94.490522  9  7  4  98       
PG14 -16391.935588  10851.791354 -17504.350736    -89.843977  5  7  3  93       
PG15   2070.787391 -26131.542797  -2869.885761   -357.339451  9  9  4 106       
PG16  -8244.537842  12370.398414  21836.310487     35.839942  9  7  3 117       
PG17  15184.945458   -984.686718 -21372.548402   -140.535018  8  2  5  63       
PG18 -21481.267779 -15316.444427  -3184.871388    633.225364  2  7  3  66       
PG19  16651.878362  -9575.295113 -18716.166688   -472.088773 10  6  6  93       
PG20  -9012.343825 -20467.703461  14204.572164    494.534638  6  8  8 109       
PG21 -19807.177729  -6510.911312  17277.526449   -456.256481  5  6  3 106       
PG22   4218.662816  20123.278391 -16562.179582   -209.892609  6  2  6 101       
PG23   3338.174646  23467.106754  11794.703609   -218.886054  6  8  6 105       
PG24    580.400703 -16267.761729 -21042.926396    -42.989286  8  7  7  99       
PG25 -17382.663060 -19971.014740  -3476.562263   -499.705760  7  5  6  85       
PG26 -16708.555921   4005.357760  20287.277651   -339.196108  4  4  3 115       
PG27 -12319.560582  20862.481331  10550.156439    353.080254  3 10  8  94       
PG28  20504.091276  12090.109140 -11119.239542    667.838692  5  6  5  99       
PG29  -5615.899680 -19803.447586  16783.361340    530.172244  7  7  8 125       
PG30  24495.915027   1883.670637  10281.702457    123.542389  6  6  6  61       
PG31 -25678.764746   7537.000278   1219.142672    157.994646  5  6  4 107       
PG32 -15941.744775   3425.386636 -20930.939386   -527.725518  7  8  6  98       
*  2017 12  3 14 45  0.00000000
PG01    -15.565208  15694.902829 -21523.395110    -14.353240  5  6  4  76       
PG02  20335.692943 -15020.655843   8153.441720    264.990079  8  7  4  63       
PG03   9561.689697  20618.720362 -13800.656417    -32.830953  4  4  8  94       
PG04 -20858.511996  -4293.594481  15816.491125 999999.999999
PG05  10282.758683 -11576.864982  21480.092592    -20.865120  7  8  4  69       
PG06  25417.049614  -7002.565427  -3257.074633    412.111441  3  6  4  86       
PG07  16284.751019   8758.236275  19427.091899    271.078234  5  2  3  80       
PG08  -5618.693284  25821.633328   2006.382923    -82.804831  7  6  8  85       
PG09   9637.485716  17588.154233  17375.215041    478.935951  4  4  1 105       
PG10 -22510.660567  -8102.943127 -11660.122412    122.732221  6  2  6  71       
PG11  -2469.046978  20797.208808 -16969.267136   -729.119607  7  5  5 103       
PG12  -5845.079420 -20349.333533 -16325.865979    362.075043  5  6  5  90       
PG13  12243.392531 -22207.004935   7811.352458    -94.490538  8  7  5 109       
PG14 -15936.227413   8748.379829 -19027.951062    -89.844662  5  7  4 100       
PG15   2462.551414 -26231.884671    -64.080332   -357.339636  9  9  4  96       
PG16 -10017.371894  10554.959315  22081.272359     35.839737  9  8  4 100       
PG17  14576.620207   1488.082378 -21769.557233   -140.532747  7  2  5  72       
PG18 -21475.884556 -15752.732459   -420.420319    633.225463  4  6  1  69       
PG19  16087.670645  -7491.968435 -20109.331985   -472.086740  9  6  6  88       
PG20  -7435.653632 -19630.203954  16142.950347    494.535702  5  8  8  85       
PG21 -18054.688016  -7336.752562  18862.879627   -456.253296  4  6  3  82       
PG22   2497.246334  19009.485848 -18132.652840   -209.903361  6  3  6  59       
PG23   2825.397304  24579.038624   9315.640294   -218.886151  6  8  6 103       
PG24   2819.957109 -16996.829108 -20242.944481    -42.989841  7  7  7 109       
PG25 -16857.665180 -19753.397215  -6276.721334   -499.711428  7  5  6  95       
PG26 -18340.199478   2451.519372  19099.649693   -339.183069  4  4  3  89       
PG27 -12236.801948  19490.476815  12995.831011    353.083048  2 10  8  95       
PG28  21203.525853  13088.465738  -8518.969598    667.841324  5  6  5 103       
PG29  -5014.575710 -21506.870115  14757.511946    530.167487  7  6  8 103       
PG30  23293.260073   2456.279536  12666.381609    123.539882  6  6  5  56       
PG31 -25710.498339   7326.785906  -1621.430688    157.992124  5  7  5 103       
PG32 -15515.990024   1027.562664 -21503.246280   -527.727610  7  8  6  90       
EOF
